STARLINK-31162          
1 58791U 24012E   24035.58334491 -.01739857  00000+0 -28939-1 0  9993
2 58791  42.9994 153.9126 0001396 273.4700  58.6613 15.54421002  4476
STARLINK-31194          
1 58792U 24012F   24035.91667824 -.01743140  00000+0 -23071-1 0  9992
2 58792  43.0000 151.2839 0001821 269.2110  37.8740 15.60453390  4528
STARLINK-31184          
1 58793U 24012G   24035.58334491 -.01742777  00000+0 -25547-1 0  9992
2 58793  42.9995 153.9227 0001420 271.5857  57.2131 15.57796150  4372
STARLINK-31192          
1 58794U 24012H   24035.58334491 -.01741525  00000+0 -25529-1 0  9993
2 58794  42.9995 153.9214 0001444 277.7623  51.8932 15.57793304  4315
STARLINK-31161          
1 58795U 24012J   24035.91667824 -.01744531  00000+0 -26794-1 0  9995
2 58795  42.9994 151.9484 0001845 277.7450 123.5937 15.56561258  4519
STARLINK-31195          
1 58796U 24012K   24035.91667824 -.01748090  00000+0 -26858-1 0  9991
2 58796  42.9997 151.9462 0001565 274.3367 127.8563 15.56561258  4510
STARLINK-31193          
1 58797U 24012L   24035.58334491 -.01740023  00000+0 -25506-1 0  9993
2 58797  42.9995 153.9144 0001747 279.1699  53.0532 15.57788715  4461
STARLINK-31168          
1 58798U 24012M   24035.91667824 -.01745351  00000+0 -26815-1 0  9993
2 58798  42.9996 151.9414 0001658 279.4164 124.4861 15.56556256  4518
STARLINK-31154          
1 58799U 24012N   24035.91667824 -.01743082  00000+0 -26796-1 0  9991
2 58799  42.9996 151.9169 0001628 282.4750 130.8254 15.56536656  4416
STARLINK-31191          
1 58800U 24012P   24035.91667824 -.01747670  00000+0 -26856-1 0  9998
2 58800  42.9996 151.9392 0001562 275.6206 129.1355 15.56556102  4369
STARLINK-31170          
1 58801U 24012Q   24035.91667824 -.01746385  00000+0 -26834-1 0  9997
2 58801  42.9996 151.9367 0001747 277.9646 127.6455 15.56554203  4511
STARLINK-31173          
1 58802U 24012R   24035.77477809  .00488243  11294-3  83585-3 0  9996
2 58802  42.9982 149.9834 0002848 291.1164  68.9410 16.01656903  4529
STARLINK-31141          
1 58803U 24012S   24035.91667824 -.01747947  00000+0 -26867-1 0  9990
2 58803  42.9994 151.9299 0001562 276.0356 132.1377 15.56549925  4517
STARLINK-31188          
1 58804U 24012T   24035.91667824 -.01746495  00000+0 -26839-1 0  9997
2 58804  42.9996 151.9322 0001750 278.5178 128.8010 15.56551085  4511
STARLINK-31105          
1 58805U 24012U   24035.91667824 -.01748492  00000+0 -26878-1 0  9990
2 58805  42.9998 151.9280 0001497 276.7120 132.3150 15.56548959  4366
STARLINK-31138          
1 58806U 24012V   24035.91667824 -.01741836  00000+0 -26768-1 0  9994
2 58806  42.9996 151.9264 0001690 280.0614 129.8218 15.56542572  4516
STARLINK-31163          
1 58807U 24012W   24035.91667824 -.01748640  00000+0 -26884-1 0  9994
2 58807  42.9996 151.9235 0001461 276.7726 133.9630 15.56545882  4518
STARLINK-31174          
1 58808U 24012X   24035.91667824 -.01748198  00000+0 -26879-1 0  9997
2 58808  42.9996 151.9211 0001394 277.7453 133.8444 15.56543929  4518
STARLINK-31169          
1 58809U 24012Y   24035.91667824 -.01747860  00000+0 -26874-1 0  9998
2 58809  42.9996 151.9195 0001505 278.2261 134.2184 15.56542070  4519
NANOFF A                
1 58810U 23185T   24029.79184023  .00004237  00000+0  32841-3 0  9998
2 58810  97.6416  98.6894 0013698  49.2557  46.4273 15.01865590  2064
TIANZHOU-7              
1 58811U 24013A   24034.70486427  .00015997  00000+0  17408-3 0  9997
2 58811  41.4671 184.8070 0008492 294.2206  65.7746 15.63039622158044
CZ-7 DEB                
1 58813U 24013C   24018.11402078 -.00002294  72670-5  00000+0 0  9997
2 58813  41.8298 285.9373 0234014 181.6233 328.2070 15.73710950    93
CZ-7 DEB                
1 58814U 24013D   24018.11444661 -.00002240  70950-5  00000+0 0  9992
2 58814  41.6413 286.0086 0240306 187.1577 323.2676 15.72861586    84
AXIOM-3                 
1 58815U 24014A   24034.68068535  .00013418  00000+0  24713-3 0  9998
2 58815  51.6409 261.8899 0002386 190.5057 272.8681 15.49479907437691
DALIAN-1 LIANLI         
1 58816U 23063C   24029.78296075  .00121385  00000+0  11155-2 0  9997
2 58816  41.4674 214.5252 0011520 239.0941 239.9411 15.66444064  1745
SORAYA                  
1 58817U 24015A   24035.85127563  .00000133  00000+0  73040-4 0  9996
2 58817  64.5134  67.4996 0011322 256.3912 103.5912 14.41908908  2256
QAEM 100 R/B            
1 58818U 24015B   24035.48978526  .00000305  00000+0  12208-3 0  9998
2 58818  64.5026  68.4310 0012213 288.9648  71.0114 14.43304524  2209
QAEM 100 DEB            
1 58819U 24015C   24028.55774234  .00054227  00000+0  15623-1 0  9993
2 58819  64.4782  88.5570 0010930 314.2129  45.8058 14.44281846  1162
2024-016A               
1 58820U 24016A   24035.85926358  .00013098  00000+0  77768-3 0  9994
2 58820  97.5239 111.9936 0013512 237.5509 122.4415 15.11369771  1925
2024-016B               
1 58821U 24016B   24035.85952536  .00009626  00000+0  57405-3 0  9990
2 58821  97.5237 111.9929 0013442 237.8997 122.0929 15.11290786  1916
2024-016C               
1 58822U 24016C   24035.85932165  .00008453  00000+0  50443-3 0  9999
2 58822  97.5228 111.9918 0013780 237.9251 122.0642 15.11301438  1913
2024-016D               
1 58823U 24016D   24035.85781009  .00007677  00000+0  45637-3 0  9995
2 58823  97.5202 111.9899 0013690 241.8461 118.1386 15.11472531  1915
2024-016E               
1 58824U 24016E   24035.78529667  .00077810  37742-5  59012-3 0  9995
2 58824  97.6675 112.9786 0185874 339.2631  20.1146 15.52844826  1946
2024-016F               
1 58825U 24016F   24031.70665767  .00014304  00000+0  85120-3 0  9995
2 58825  97.5238 107.9071 0013491 255.9841 205.3490 15.11267796  1213
STARLINK-31233          
1 58826U 24017A   24035.53653460  .00590901  00000+0  38351-2 0  9994
2 58826  53.1659 163.5110 0002287 193.7188 166.3769 15.73747016  2936
STARLINK-31271          
1 58827U 24017B   24035.58882938 -.00257338  00000+0 -18653-2 0  9993
2 58827  53.1656 163.1204 0000316 181.3045 178.7973 15.73455471  2946
STARLINK-31222          
1 58828U 24017C   24035.53628773  .00036132  00000+0  26088-3 0  9991
2 58828  53.1653 163.5067 0001183 105.5444 254.5706 15.73187334  2935
STARLINK-31258          
1 58829U 24017D   24035.53610223  .00456677  00000+0  30431-2 0  9999
2 58829  53.1650 163.5055 0001371 273.5807  86.5056 15.73515965  2934
STARLINK-31253          
1 58830U 24017E   24035.53596152  .00311133  00000+0  21201-2 0  9997
2 58830  53.1652 163.5054 0000585 352.3612   7.7398 15.73418191  2930
STARLINK-31232          
1 58831U 24017F   24035.53578560  .00272552  00000+0  18636-2 0  9990
2 58831  53.1652 163.5055 0000949 348.4111  11.6886 15.73453634  2933
STARLINK-31263          
1 58832U 24017G   24035.53567266  .00131933  00000+0  92958-3 0  9999
2 58832  53.1650 163.5029 0001467  21.4879 338.6201 15.73203049  3047
STARLINK-31175          
1 58833U 24017H   24035.57776140 -.00142208  00000+0 -91712-3 0  9993
2 58833  53.1662 163.0451 0000269 101.9492 258.1559 15.75782271  2940
STARLINK-31171          
1 58834U 24017J   24035.58552240 -.00223982  00000+0 -15826-2 0  9998
2 58834  53.1659 163.0976 0001464 343.3972  16.7000 15.73943600  2944
STARLINK-31246          
1 58835U 24017K   24035.59874000  .00042120  00000+0  30321-3 0  9990
2 58835  53.1652 163.1838 0001972 139.6854 220.4312 15.73183214  2942
STARLINK-31251          
1 58836U 24017L   24035.59841461  .00122521  00000+0  86340-3 0  9992
2 58836  53.1648 163.1824 0002013  26.4912 333.6210 15.73233535  3057
STARLINK-31172          
1 58837U 24017M   24035.57800211 -.00193867  00000+0 -11182-2 0  9993
2 58837  53.1663 163.0471 0000768 109.3497 250.7608 15.78448307  2943
STARLINK-31249          
1 58838U 24017N   24035.59824980  .00121067  00000+0  85469-3 0  9996
2 58838  53.1652 163.1809 0000607 149.5280 210.5775 15.73197805  2944
STARLINK-31250          
1 58839U 24017P   24035.59811117  .00128009  00000+0  90096-3 0  9990
2 58839  53.1646 163.1808 0001915 151.9837 208.1286 15.73242140  2892
STARLINK-31248          
1 58840U 24017Q   24035.53423439  .00473314  00000+0  31486-2 0  9991
2 58840  53.1641 163.4916 0000320 295.6778  64.4208 15.73504655  3048
STARLINK-31236          
1 58841U 24017R   24035.59793900  .00179281  00000+0  12530-2 0  9996
2 58841  53.1651 163.1788 0000871  47.6376 312.4717 15.73231029  2967
STARLINK-31228          
1 58842U 24017S   24035.59761905  .00338410  00000+0  22994-2 0  9993
2 58842  53.1645 163.1783 0004113 192.1629 167.9292 15.73402019  2944
STARLINK-31280          
1 58843U 24017T   24035.59747779  .00178327  00000+0  12444-2 0  9995
2 58843  53.1648 163.1748 0001425 178.2953 181.8072 15.73270439  2947
STARLINK-31269          
1 58844U 24017U   24035.59701739  .00051511  00000+0  37096-3 0  9998
2 58844  53.1632 163.1736 0001893 154.9753 205.1358 15.73085807  2946
STARLINK-31264          
1 58845U 24017V   24035.59716689  .00074545  00000+0  53068-3 0  9998
2 58845  53.1643 163.1741 0002790 166.0280 194.0817 15.73203450  2943
STARLINK-31273          
1 58846U 24017W   24035.59732478  .00107338  00000+0  75688-3 0  9992
2 58846  53.1646 163.1759 0002471  18.2504 341.8604 15.73276889  2941
STARLINK-31262          
1 58847U 24017X   24035.59686650  .00063783  00000+0  45556-3 0  9999
2 58847  53.1625 163.1701 0001544  86.8346 273.2850 15.73191907  2938
AAC-AIS-SAT3            
1 58848U 23174DH  24035.83036537  .00006729  00000+0  46347-3 0  9999
2 58848  97.4502 111.4431 0014322 108.1945 252.0842 15.06092757 13455
2024-018A               
1 58849U 24018A   24035.86334509  .00001436  00000+0  18594-3 0  9994
2 58849  58.6908   0.5819 0458133 171.2785 189.6558 14.32748478  1135
